GLOBALSTAR M068         
1 32266U 07048D   25061.93964503 -.00000083  00000+0  11435-3 0  9999
2 32266  51.9870 266.1361 0000065 186.5867 266.1716 12.62816415804139
GLOBALSTAR M079         
1 37188U 10054A   25062.56129186 -.00000094  00000+0  56984-4 0  9999
2 37188  52.0028 101.3288 0000633  93.0648  39.7832 12.62271412663118
GLOBALSTAR M074         
1 37189U 10054B   25062.51308226 -.00000086  00000+0  98319-4 0  9998
2 37189  52.0005 100.8154 0000569 131.3305  21.3757 12.62266999663784
GLOBALSTAR M076         
1 37190U 10054C   25062.34969002 -.00000085  00000+0  10489-3 0  9996
2 37190  52.0019 101.4702 0000822 114.9177 257.6441 12.62278259663419
GLOBALSTAR M077         
1 37191U 10054D   25062.44971596 -.00000114  00000+0 -59481-4 0  9999
2 37191  52.0075  57.9937 0000374  99.0075  65.9654 12.62271277663799
GLOBALSTAR M075         
1 37192U 10054E   25062.54148721 -.00000051  00000+0  29241-3 0  9996
2 37192  51.9941 143.2031 0000647 117.6039 346.7007 12.62262121662502
GLOBALSTAR M073         
1 37193U 10054F   25062.55395140 -.00000111  00000+0 -39787-4 0  9992
2 37193  52.0064  56.9044 0000484  95.3215  63.4304 12.62263841664495
GLOBALSTAR M083         
1 37739U 11033A   25062.15875838 -.00000084  00000+0  11041-3 0  9999
2 37739  51.9886   6.9823 0000529  56.6131  47.0803 12.62259814633468
GLOBALSTAR M088         
1 37740U 11033B   25062.82493509 -.00000083  00000+0  11685-3 0  9999
2 37740  51.9719 270.5365 0000841  78.6991 293.9527 12.62263801629382
GLOBALSTAR M091         
1 37741U 11033C   25062.52659559 -.00000097  00000+0  37208-4 0  9991
2 37741  51.9977 234.8109 0000856  76.3370 319.1095 12.62265456629840
GLOBALSTAR M085         
1 37742U 11033D   25062.58765066 -.00000076  00000+0  15369-3 0  9999
2 37742  51.9857 185.7558 0000758  92.4738 280.5733 12.62265840630858
GLOBALSTAR M081         
1 37743U 11033E   25062.54950744 -.00000088  00000+0  88040-4 0  9995
2 37743  51.9946 188.5925 0000952  96.4245 343.8113 12.62261195630506
GLOBALSTAR M089         
1 37744U 11033F   25062.60395902 -.00000069  00000+0  19239-3 0  9994
2 37744  51.9925 142.6763 0000838 127.6939  19.7407 12.62266730631602
GLOBALSTAR M084         
1 38040U 11080A   25062.62229130 -.00000084  00000+0  11273-3 0  9994
2 38040  52.0036   9.8500 0000550 107.6572  63.2816 12.62262840609614
GLOBALSTAR M080         
1 38041U 11080B   25062.27434589 -.00000093  00000+0  62219-4 0  9999
2 38041  52.0088  12.4813 0000829 106.6674  40.9285 12.62277499609416
GLOBALSTAR M082         
1 38042U 11080C   25062.45076301 -.00000064  00000+0  22009-3 0  9994
2 38042  52.0097 327.3794 0000600  32.2774 139.1505 12.62263292610318
GLOBALSTAR M092         
1 38043U 11080D   25062.23137994 -.00000111  00000+0 -41304-4 0  9991
2 38043  52.0091  58.4139 0000302 117.6966 256.5175 12.62273063608577
GLOBALSTAR M090         
1 38044U 11080E   25062.85196166 -.00000076  00000+0  15516-3 0  9990
2 38044  51.9904 320.1038 0000710  59.8661  14.5149 12.62267429610359
GLOBALSTAR M086         
1 38045U 11080F   25062.18547605 -.00000070  00000+0  18590-3 0  9994
2 38045  51.9917 322.6758 0001554  80.2530  84.4591 12.62267407610173
GLOBALSTAR M097         
1 39072U 13005A   25062.49262989 -.00000094  00000+0  54446-4 0  9994
2 39072  52.0025 236.1789 0001027  83.9588 276.1395 12.62270756557462
GLOBALSTAR M093         
1 39073U 13005B   25062.70328249 -.00000095  00000+0  48584-4 0  9998
2 39073  51.9789 229.0054 0001001  85.3586 274.7395 12.62262189557566
GLOBALSTAR M094         
1 39074U 13005C   25062.78280190 -.00000081  00000+0  12692-3 0  9994
2 39074  51.9954 143.0424 0000747  92.2010 267.8943 12.62268645559086
GLOBALSTAR M096         
1 39075U 13005D   25062.71687378 -.00000085  00000+0  10344-3 0  9993
2 39075  52.0061 191.6750 0000860  86.0600 274.0365 12.62268735558325
GLOBALSTAR M078         
1 39076U 13005E   25062.29385100 -.00000089  00000+0  84937-4 0  9999
2 39076  51.9864 277.6149 0000636   3.5061 356.5809 12.62259814556547
GLOBALSTAR M095         
1 39077U 13005F   25062.32076001 -.00000085  00000+0  10644-3 0  9990
2 39077  51.9787 274.7857 0000920  45.8716 314.2226 12.62267386556400
GLOBALSTAR M087         
1 52888U 22064A   25062.43062726 -.00000106  00000+0 -14531-4 0  9996
2 52888  51.9796  55.8518 0000328  66.1641 293.9259 12.62269084131687
